NAVSTAR 46 (USA 145)    
1 25933U 99055A   26072.82034968 -.00000018  00000+0  00000+0 0  9995
2 25933  51.5489 299.6400 0106389 171.9290   9.1480  2.00567343193669
NAVSTAR 49 (USA 154)    
1 26605U 00071A   26072.68424830  .00000036  00000+0  00000+0 0  9996
2 26605  55.5687  98.7251 0173455 265.6826 103.4412  2.00570193185601
NAVSTAR 52 (USA 168)    
1 27704U 03010A   26070.54280656 -.00000084  00000+0  00000+0 0  9996
2 27704  54.8698 328.8449 0004627 343.0100 204.2637  1.94743161168016
NAVSTAR 53 (USA 175)    
1 28129U 03058A   26071.51696380 -.00000070  00000+0  00000+0 0  9998
2 28129  54.9721  26.8461 0003160 314.5189  45.4493  1.92678601162604
NAVSTAR 55 (USA 178)    
1 28361U 04023A   26072.39975200  .00000030  00000+0  00000+0 0  9992
2 28361  54.7964  90.5792 0159871 298.9108  53.8796  2.00552384159111
COSMO-SKYMED 1          
1 31598U 07023A   26072.94361116  .00004825  00000+0  42908-3 0  9990
2 31598  97.8882 264.0096 0001578  95.4766 264.6635 14.96574619 15544
COSMO-SKYMED 2          
1 32376U 07059A   26072.97118623  .00000657  00000+0  89126-4 0  9993
2 32376  97.8868 257.9453 0001327  83.9144 276.2221 14.82149240987894
COSMO-SKYMED 3          
1 33412U 08054A   26072.97119663  .00004328  00000+0  29846-3 0  9997
2 33412  97.8416 289.9339 0014664 225.8003 134.2020 15.06287447942601
NAVSTAR 63 (USA 203)    
1 34661U 09014A   26072.57483891  .00000017  00000+0  00000+0 0  9992
2 34661  54.5029 214.4867 0144936  61.4833 120.7701  2.00555628124368
DMSP 5D-3 F18 (USA 210) 
1 35951U 09057A   26072.95551591  .00000306  00000+0  18149-3 0  9995
2 35951  98.8968  53.9706 0011368 156.3337 203.8361 14.14838953846120
AEHF-1 (USA 214)        
1 36868U 10039A   26072.64735646  .00000151  00000+0  00000+0 0  9997
2 36868   7.9828  69.2901 0004323 282.4183  82.5563  1.00269989 52701
SBSS (USA 216)          
1 37168U 10048A   26071.98793184  .00005133  00000+0  25053-3 0  9992
2 37168  97.7475 315.5523 0082509 174.1816 311.3892 15.15755191837894
COSMO-SKYMED 4          
1 37216U 10060A   26072.98384141  .00000435  00000+0  61181-4 0  9993
2 37216  97.8871 257.9577 0001495  83.0447 277.0936 14.82144204830463
NAVSTAR 66 (USA 232)    
1 37753U 11036A   26072.41772048 -.00000079  00000+0  00000+0 0  9991
2 37753  56.6074 335.7480 0140225  60.9590 141.4014  2.00563331107352
AEHF-2 (USA 235)        
1 38254U 12019A   26072.78079479 -.00000132  00000+0  00000+0 0  9998
2 38254   6.4295  58.1783 0003126 283.2868  94.5435  1.00272740  6033
WGS F7 (USA 263)        
1 40746U 15036A   26072.60480293  .00000017  00000+0  00000+0 0  9991
2 40746   0.0131 135.0510 0000225 270.5458 158.3684  1.00272244 38911
BEIDOU-2 IGSO-6         
1 41434U 16021A   26070.87699223 -.00000131  00000+0  00000+0 0  9991
2 41434  60.0969  39.0050 0059566 233.2714 308.7278  1.00277411 36500
AEHF-4 (USA 288)        
1 43651U 18079A   26072.91348205 -.00000274  00000+0  00000+0 0  9995
2 43651   1.4220 355.4529 0063991 359.1371  78.2689  1.00270052 27343
BEIDOU-3 IGSO-1         
1 44204U 19023A   26072.88750469 -.00000185  00000+0  00000+0 0  9996
2 44204  58.5672  38.6298 0025635 236.0438 335.2844  1.00268377  6258
AEHF-5 (USA 292)        
1 44481U 19051A   26072.94494219 -.00000257  00000+0  00000+0 0  9999
2 44481   1.5525 329.3120 0071181   3.3698 272.1078  1.00269143 24300
