[ {"OBJECT_NAME": "BEIDOU-2 IGSO-6 (C13)", "NORAD_CAT_ID": 41434, "MEAN_MOTION": 1.00277411, "ECCENTRICITY": 0.0059566, "INCLINATION": 60.0969, "RA_OF_ASC_NODE": 39.005, "ARG_OF_PERICENTER": 233.2714, "MEAN_ANOMALY": 308.7278, "BSTAR": 0.0, "EPOCH": "2026-03-11T21:02:52"}, {"OBJECT_NAME": "BEIDOU-3 IGSO-1 (C38)", "NORAD_CAT_ID": 44204, "MEAN_MOTION": 1.00268377, "ECCENTRICITY": 0.0025635, "INCLINATION": 58.5672, "RA_OF_ASC_NODE": 38.6298, "ARG_OF_PERICENTER": 236.0438, "MEAN_ANOMALY": 335.2844, "BSTAR": 0.0, "EPOCH": "2026-03-13T21:18:00"}, {"OBJECT_NAME": "COSMO-SKYMED 1", "NORAD_CAT_ID": 31598, "MEAN_MOTION": 14.96574619, "ECCENTRICITY": 0.0001578, "INCLINATION": 97.8882, "RA_OF_ASC_NODE": 264.0096, "ARG_OF_PERICENTER": 95.4766, "MEAN_ANOMALY": 264.6635, "BSTAR": 0.00042908000000000003, "EPOCH": "2026-03-13T22:38:48"}, {"OBJECT_NAME": "COSMO-SKYMED 2", "NORAD_CAT_ID": 32376, "MEAN_MOTION": 14.8214924, "ECCENTRICITY": 0.0001327, "INCLINATION": 97.8868, "RA_OF_ASC_NODE": 257.9453, "ARG_OF_PERICENTER": 83.9144, "MEAN_ANOMALY": 276.2221, "BSTAR": 8.912600000000001e-05, "EPOCH": "2026-03-13T23:18:30"}, {"OBJECT_NAME": "COSMO-SKYMED 4", "NORAD_CAT_ID": 37216, "MEAN_MOTION": 14.82144204, "ECCENTRICITY": 0.0001495, "INCLINATION": 97.8871, "RA_OF_ASC_NODE": 257.9577, "ARG_OF_PERICENTER": 83.0447, "MEAN_ANOMALY": 277.0936, "BSTAR": 6.1181e-05, "EPOCH": "2026-03-13T23:36:43"}, {"OBJECT_NAME": "COSMO-SKYMED 3", "NORAD_CAT_ID": 33412, "MEAN_MOTION": 15.06287447, "ECCENTRICITY": 0.0014664, "INCLINATION": 97.8416, "RA_OF_ASC_NODE": 289.9339, "ARG_OF_PERICENTER": 225.8003, "MEAN_ANOMALY": 134.202, "BSTAR": 0.00029846, "EPOCH": "2026-03-13T23:18:31"}, {"OBJECT_NAME": "NAVSTAR 66 (USA 232)", "NORAD_CAT_ID": 37753, "MEAN_MOTION": 2.00563331, "ECCENTRICITY": 0.0140225, "INCLINATION": 56.6074, "RA_OF_ASC_NODE": 335.748, "ARG_OF_PERICENTER": 60.959, "MEAN_ANOMALY": 141.4014, "BSTAR": 0.0, "EPOCH": "2026-03-13T10:01:31"}, {"OBJECT_NAME": "NAVSTAR 46 (USA 145)", "NORAD_CAT_ID": 25933, "MEAN_MOTION": 2.00567343, "ECCENTRICITY": 0.0106389, "INCLINATION": 51.5489, "RA_OF_ASC_NODE": 299.64, "ARG_OF_PERICENTER": 171.929, "MEAN_ANOMALY": 9.148, "BSTAR": 0.0, "EPOCH": "2026-03-13T19:41:18"}, {"OBJECT_NAME": "NAVSTAR 49 (USA 154)", "NORAD_CAT_ID": 26605, "MEAN_MOTION": 2.00570193, "ECCENTRICITY": 0.0173455, "INCLINATION": 55.5687, "RA_OF_ASC_NODE": 98.7251, "ARG_OF_PERICENTER": 265.6826, "MEAN_ANOMALY": 103.4412, "BSTAR": 0.0, "EPOCH": "2026-03-13T16:25:19"}, {"OBJECT_NAME": "NAVSTAR 52 (USA 168)", "NORAD_CAT_ID": 27704, "MEAN_MOTION": 1.94743161, "ECCENTRICITY": 0.0004627, "INCLINATION": 54.8698, "RA_OF_ASC_NODE": 328.8449, "ARG_OF_PERICENTER": 343.01, "MEAN_ANOMALY": 204.2637, "BSTAR": 0.0, "EPOCH": "2026-03-11T13:01:38"}, {"OBJECT_NAME": "NAVSTAR 53 (USA 175)", "NORAD_CAT_ID": 28129, "MEAN_MOTION": 1.92678601, "ECCENTRICITY": 0.000316, "INCLINATION": 54.9721, "RA_OF_ASC_NODE": 26.8461, "ARG_OF_PERICENTER": 314.5189, "MEAN_ANOMALY": 45.4493, "BSTAR": 0.0, "EPOCH": "2026-03-12T12:24:25"}, {"OBJECT_NAME": "NAVSTAR 55 (USA 178)", "NORAD_CAT_ID": 28361, "MEAN_MOTION": 2.00552384, "ECCENTRICITY": 0.0159871, "INCLINATION": 54.7964, "RA_OF_ASC_NODE": 90.5792, "ARG_OF_PERICENTER": 298.9108, "MEAN_ANOMALY": 53.8796, "BSTAR": 0.0, "EPOCH": "2026-03-13T09:35:38"}, {"OBJECT_NAME": "NAVSTAR 63 (USA 203)", "NORAD_CAT_ID": 34661, "MEAN_MOTION": 2.00555628, "ECCENTRICITY": 0.0144936, "INCLINATION": 54.5029, "RA_OF_ASC_NODE": 214.4867, "ARG_OF_PERICENTER": 61.4833, "MEAN_ANOMALY": 120.7701, "BSTAR": 0.0, "EPOCH": "2026-03-13T13:47:46"}, {"OBJECT_NAME": "DMSP 5D-3 F18 (USA 210)", "NORAD_CAT_ID": 35951, "MEAN_MOTION": 14.14838953, "ECCENTRICITY": 0.0011368, "INCLINATION": 98.8968, "RA_OF_ASC_NODE": 53.9706, "ARG_OF_PERICENTER": 156.3337, "MEAN_ANOMALY": 203.8361, "BSTAR": 0.00018149000000000003, "EPOCH": "2026-03-13T22:55:56"}, {"OBJECT_NAME": "AEHF-1 (USA 214)", "NORAD_CAT_ID": 36868, "MEAN_MOTION": 1.00269989, "ECCENTRICITY": 0.0004323, "INCLINATION": 7.9828, "RA_OF_ASC_NODE": 69.2901, "ARG_OF_PERICENTER": 282.4183, "MEAN_ANOMALY": 82.5563, "BSTAR": 0.0, "EPOCH": "2026-03-13T15:32:11"}, {"OBJECT_NAME": "AEHF-2 (USA 235)", "NORAD_CAT_ID": 38254, "MEAN_MOTION": 1.0027274, "ECCENTRICITY": 0.0003126, "INCLINATION": 6.4295, "RA_OF_ASC_NODE": 58.1783, "ARG_OF_PERICENTER": 283.2868, "MEAN_ANOMALY": 94.5435, "BSTAR": 0.0, "EPOCH": "2026-03-13T18:44:20"}, {"OBJECT_NAME": "AEHF-5 (USA 292)", "NORAD_CAT_ID": 44481, "MEAN_MOTION": 1.00269143, "ECCENTRICITY": 0.0071181, "INCLINATION": 1.5525, "RA_OF_ASC_NODE": 329.312, "ARG_OF_PERICENTER": 3.3698, "MEAN_ANOMALY": 272.1078, "BSTAR": 0.0, "EPOCH": "2026-03-13T22:40:43"}, {"OBJECT_NAME": "AEHF-4 (USA 288)", "NORAD_CAT_ID": 43651, "MEAN_MOTION": 1.00270052, "ECCENTRICITY": 0.0063991, "INCLINATION": 1.422, "RA_OF_ASC_NODE": 355.4529, "ARG_OF_PERICENTER": 359.1371, "MEAN_ANOMALY": 78.2689, "BSTAR": 0.0, "EPOCH": "2026-03-13T21:55:24"}, {"OBJECT_NAME": "WGS F7 (USA 263)", "NORAD_CAT_ID": 40746, "MEAN_MOTION": 1.00272244, "ECCENTRICITY": 2.25e-05, "INCLINATION": 0.0131, "RA_OF_ASC_NODE": 135.051, "ARG_OF_PERICENTER": 270.5458, "MEAN_ANOMALY": 158.3684, "BSTAR": 0.0, "EPOCH": "2026-03-13T14:30:54"}, {"OBJECT_NAME": "SBSS (USA 216)", "NORAD_CAT_ID": 37168, "MEAN_MOTION": 15.15755191, "ECCENTRICITY": 0.0082509, "INCLINATION": 97.7475, "RA_OF_ASC_NODE": 315.5523, "ARG_OF_PERICENTER": 174.1816, "MEAN_ANOMALY": 311.3892, "BSTAR": 0.00025053, "EPOCH": "2026-03-12T23:42:37"}]